STARLINK-36487          
1 67416U 26005N   26024.16667824 -.01430996  00000+0 -73913-2 0  9999
2 67416  43.0006 135.9221 0001667 269.9771  56.5163 15.82749555  3025
STARLINK-36374          
1 67417U 26005P   26024.16667824 -.01436445  00000+0 -74250-2 0  9990
2 67417  43.0005 135.9168 0001509 274.1617  54.4853 15.82745505  3021
STARLINK-36455          
1 67418U 26005Q   26024.16667824 -.01446411  00000+0 -74890-2 0  9995
2 67418  43.0006 135.9105 0001533 271.1154  59.8679 15.82728872  3027
STARLINK-36424          
1 67419U 26005R   26024.16667824 -.01461401  00000+0 -75809-2 0  9993
2 67419  43.0005 135.9048 0001742 268.0651  65.2594 15.82714727  3023
STARLINK-35564          
1 67420U 26005S   26024.16667824 -.01473637  00000+0 -76507-2 0  9995
2 67420  43.0007 135.8999 0001634 272.4185  63.0145 15.82721482  2913
STARLINK-36431          
1 67421U 26005T   26024.16667824 -.01471642  00000+0 -76434-2 0  9999
2 67421  43.0008 135.8943 0001675 266.4001  71.1898 15.82708735  2819
STARLINK-36418          
1 67422U 26005U   26024.16667824 -.01479773  00000+0 -76846-2 0  9990
2 67422  43.0005 135.8896 0001692 271.8099  67.6853 15.82726577  2972
STARLINK-36465          
1 67423U 26005V   26024.16667824 -.01492410  00000+0 -77655-2 0  9993
2 67423  43.0009 135.8838 0001604 269.2940  72.5311 15.82710129  2769
STARLINK-36362          
1 67424U 26005W   26024.16667824 -.01510447  00000+0 -78742-2 0  9993
2 67424  43.0008 135.8782 0001657 272.1244  71.9305 15.82703833  3025
STARLINK-36447          
1 67425U 26005X   26024.16667824 -.01531770  00000+0 -80063-2 0  9995
2 67425  43.0009 135.8722 0001588 267.5857  78.7887 15.82689853  3027
STARLINK-36146          
1 67426U 26005Y   26024.16667824 -.01555412  00000+0 -81485-2 0  9994
2 67426  43.0009 135.8664 0001526 269.5663  79.0118 15.82687520  2975
STARLINK-36459          
1 67427U 26005Z   26024.16667824 -.01576507  00000+0 -82757-2 0  9996
2 67427  43.0007 135.8606 0001549 270.2439  80.4987 15.82685144  2942
