CCSDS_OMM_VERS = 2.0
CREATION_DATE  = 
ORIGINATOR     = 

OBJECT_NAME    = STARLINK-36487
OBJECT_ID      = 2026-005N
CENTER_NAME    = EARTH
REF_FRAME      = TEME
TIME_SYSTEM    = UTC
MEAN_ELEMENT_THEORY = SGP/SGP4

EPOCH          = 2026-01-24T04:00:00.999936
MEAN_MOTION    = 15.82749555
ECCENTRICITY   = .0001667
INCLINATION    = 43.0006
RA_OF_ASC_NODE = 135.9221
ARG_OF_PERICENTER = 269.9771
MEAN_ANOMALY   = 56.5163

EPHEMERIS_TYPE = 0
CLASSIFICATION_TYPE = U
NORAD_CAT_ID   = 67416
ELEMENT_SET_NO = 999
REV_AT_EPOCH   = 302
BSTAR          = -.73913E-2
MEAN_MOTION_DOT = -.1430996E-1
MEAN_MOTION_DDOT = 0

CCSDS_OMM_VERS = 2.0
CREATION_DATE  = 
ORIGINATOR     = 

OBJECT_NAME    = STARLINK-36374
OBJECT_ID      = 2026-005P
CENTER_NAME    = EARTH
REF_FRAME      = TEME
TIME_SYSTEM    = UTC
MEAN_ELEMENT_THEORY = SGP/SGP4

EPOCH          = 2026-01-24T04:00:00.999936
MEAN_MOTION    = 15.82745505
ECCENTRICITY   = .0001509
INCLINATION    = 43.0005
RA_OF_ASC_NODE = 135.9168
ARG_OF_PERICENTER = 274.1617
MEAN_ANOMALY   = 54.4853

EPHEMERIS_TYPE = 0
CLASSIFICATION_TYPE = U
NORAD_CAT_ID   = 67417
ELEMENT_SET_NO = 999
REV_AT_EPOCH   = 302
BSTAR          = -.7425E-2
MEAN_MOTION_DOT = -.1436445E-1
MEAN_MOTION_DDOT = 0

CCSDS_OMM_VERS = 2.0
CREATION_DATE  = 
ORIGINATOR     = 

OBJECT_NAME    = STARLINK-36455
OBJECT_ID      = 2026-005Q
CENTER_NAME    = EARTH
REF_FRAME      = TEME
TIME_SYSTEM    = UTC
MEAN_ELEMENT_THEORY = SGP/SGP4

EPOCH          = 2026-01-24T04:00:00.999936
MEAN_MOTION    = 15.82728872
ECCENTRICITY   = .0001533
INCLINATION    = 43.0006
RA_OF_ASC_NODE = 135.9105
ARG_OF_PERICENTER = 271.1154
MEAN_ANOMALY   = 59.8679

EPHEMERIS_TYPE = 0
CLASSIFICATION_TYPE = U
NORAD_CAT_ID   = 67418
ELEMENT_SET_NO = 999
REV_AT_EPOCH   = 302
BSTAR          = -.7489E-2
MEAN_MOTION_DOT = -.1446411E-1
MEAN_MOTION_DDOT = 0

CCSDS_OMM_VERS = 2.0
CREATION_DATE  = 
ORIGINATOR     = 

OBJECT_NAME    = STARLINK-36424
OBJECT_ID      = 2026-005R
CENTER_NAME    = EARTH
REF_FRAME      = TEME
TIME_SYSTEM    = UTC
MEAN_ELEMENT_THEORY = SGP/SGP4

EPOCH          = 2026-01-24T04:00:00.999936
MEAN_MOTION    = 15.82714727
ECCENTRICITY   = .0001742
INCLINATION    = 43.0005
RA_OF_ASC_NODE = 135.9048
ARG_OF_PERICENTER = 268.0651
MEAN_ANOMALY   = 65.2594

EPHEMERIS_TYPE = 0
CLASSIFICATION_TYPE = U
NORAD_CAT_ID   = 67419
ELEMENT_SET_NO = 999
REV_AT_EPOCH   = 302
BSTAR          = -.75809E-2
MEAN_MOTION_DOT = -.1461401E-1
MEAN_MOTION_DDOT = 0

CCSDS_OMM_VERS = 2.0
CREATION_DATE  = 
ORIGINATOR     = 

OBJECT_NAME    = STARLINK-35564
OBJECT_ID      = 2026-005S
CENTER_NAME    = EARTH
REF_FRAME      = TEME
TIME_SYSTEM    = UTC
MEAN_ELEMENT_THEORY = SGP/SGP4

EPOCH          = 2026-01-24T04:00:00.999936
MEAN_MOTION    = 15.82721482
ECCENTRICITY   = .0001634
INCLINATION    = 43.0007
RA_OF_ASC_NODE = 135.8999
ARG_OF_PERICENTER = 272.4185
MEAN_ANOMALY   = 63.0145

EPHEMERIS_TYPE = 0
CLASSIFICATION_TYPE = U
NORAD_CAT_ID   = 67420
ELEMENT_SET_NO = 999
REV_AT_EPOCH   = 291
BSTAR          = -.76507E-2
MEAN_MOTION_DOT = -.1473637E-1
MEAN_MOTION_DDOT = 0

CCSDS_OMM_VERS = 2.0
CREATION_DATE  = 
ORIGINATOR     = 

OBJECT_NAME    = STARLINK-36431
OBJECT_ID      = 2026-005T
CENTER_NAME    = EARTH
REF_FRAME      = TEME
TIME_SYSTEM    = UTC
MEAN_ELEMENT_THEORY = SGP/SGP4

EPOCH          = 2026-01-24T04:00:00.999936
MEAN_MOTION    = 15.82708735
ECCENTRICITY   = .0001675
INCLINATION    = 43.0008
RA_OF_ASC_NODE = 135.8943
ARG_OF_PERICENTER = 266.4001
MEAN_ANOMALY   = 71.1898

EPHEMERIS_TYPE = 0
CLASSIFICATION_TYPE = U
NORAD_CAT_ID   = 67421
ELEMENT_SET_NO = 999
REV_AT_EPOCH   = 281
BSTAR          = -.76434E-2
MEAN_MOTION_DOT = -.1471642E-1
MEAN_MOTION_DDOT = 0

CCSDS_OMM_VERS = 2.0
CREATION_DATE  = 
ORIGINATOR     = 

OBJECT_NAME    = STARLINK-36418
OBJECT_ID      = 2026-005U
CENTER_NAME    = EARTH
REF_FRAME      = TEME
TIME_SYSTEM    = UTC
MEAN_ELEMENT_THEORY = SGP/SGP4

EPOCH          = 2026-01-24T04:00:00.999936
MEAN_MOTION    = 15.82726577
ECCENTRICITY   = .0001692
INCLINATION    = 43.0005
RA_OF_ASC_NODE = 135.8896
ARG_OF_PERICENTER = 271.8099
MEAN_ANOMALY   = 67.6853

EPHEMERIS_TYPE = 0
CLASSIFICATION_TYPE = U
NORAD_CAT_ID   = 67422
ELEMENT_SET_NO = 999
REV_AT_EPOCH   = 297
BSTAR          = -.76846E-2
MEAN_MOTION_DOT = -.1479773E-1
MEAN_MOTION_DDOT = 0

CCSDS_OMM_VERS = 2.0
CREATION_DATE  = 
ORIGINATOR     = 

OBJECT_NAME    = STARLINK-36465
OBJECT_ID      = 2026-005V
CENTER_NAME    = EARTH
REF_FRAME      = TEME
TIME_SYSTEM    = UTC
MEAN_ELEMENT_THEORY = SGP/SGP4

EPOCH          = 2026-01-24T04:00:00.999936
MEAN_MOTION    = 15.82710129
ECCENTRICITY   = .0001604
INCLINATION    = 43.0009
RA_OF_ASC_NODE = 135.8838
ARG_OF_PERICENTER = 269.2940
MEAN_ANOMALY   = 72.5311

EPHEMERIS_TYPE = 0
CLASSIFICATION_TYPE = U
NORAD_CAT_ID   = 67423
ELEMENT_SET_NO = 999
REV_AT_EPOCH   = 276
BSTAR          = -.77655E-2
MEAN_MOTION_DOT = -.149241E-1
MEAN_MOTION_DDOT = 0

CCSDS_OMM_VERS = 2.0
CREATION_DATE  = 
ORIGINATOR     = 

OBJECT_NAME    = STARLINK-36362
OBJECT_ID      = 2026-005W
CENTER_NAME    = EARTH
REF_FRAME      = TEME
TIME_SYSTEM    = UTC
MEAN_ELEMENT_THEORY = SGP/SGP4

EPOCH          = 2026-01-24T04:00:00.999936
MEAN_MOTION    = 15.82703833
ECCENTRICITY   = .0001657
INCLINATION    = 43.0008
RA_OF_ASC_NODE = 135.8782
ARG_OF_PERICENTER = 272.1244
MEAN_ANOMALY   = 71.9305

EPHEMERIS_TYPE = 0
CLASSIFICATION_TYPE = U
NORAD_CAT_ID   = 67424
ELEMENT_SET_NO = 999
REV_AT_EPOCH   = 302
BSTAR          = -.78742E-2
MEAN_MOTION_DOT = -.1510447E-1
MEAN_MOTION_DDOT = 0

CCSDS_OMM_VERS = 2.0
CREATION_DATE  = 
ORIGINATOR     = 

OBJECT_NAME    = STARLINK-36447
OBJECT_ID      = 2026-005X
CENTER_NAME    = EARTH
REF_FRAME      = TEME
TIME_SYSTEM    = UTC
MEAN_ELEMENT_THEORY = SGP/SGP4

EPOCH          = 2026-01-24T04:00:00.999936
MEAN_MOTION    = 15.82689853
ECCENTRICITY   = .0001588
INCLINATION    = 43.0009
RA_OF_ASC_NODE = 135.8722
ARG_OF_PERICENTER = 267.5857
MEAN_ANOMALY   = 78.7887

EPHEMERIS_TYPE = 0
CLASSIFICATION_TYPE = U
NORAD_CAT_ID   = 67425
ELEMENT_SET_NO = 999
REV_AT_EPOCH   = 302
BSTAR          = -.80063E-2
MEAN_MOTION_DOT = -.153177E-1
MEAN_MOTION_DDOT = 0

CCSDS_OMM_VERS = 2.0
CREATION_DATE  = 
ORIGINATOR     = 

OBJECT_NAME    = STARLINK-36146
OBJECT_ID      = 2026-005Y
CENTER_NAME    = EARTH
REF_FRAME      = TEME
TIME_SYSTEM    = UTC
MEAN_ELEMENT_THEORY = SGP/SGP4

EPOCH          = 2026-01-24T04:00:00.999936
MEAN_MOTION    = 15.82687520
ECCENTRICITY   = .0001526
INCLINATION    = 43.0009
RA_OF_ASC_NODE = 135.8664
ARG_OF_PERICENTER = 269.5663
MEAN_ANOMALY   = 79.0118

EPHEMERIS_TYPE = 0
CLASSIFICATION_TYPE = U
NORAD_CAT_ID   = 67426
ELEMENT_SET_NO = 999
REV_AT_EPOCH   = 297
BSTAR          = -.81485E-2
MEAN_MOTION_DOT = -.1555412E-1
MEAN_MOTION_DDOT = 0

CCSDS_OMM_VERS = 2.0
CREATION_DATE  = 
ORIGINATOR     = 

OBJECT_NAME    = STARLINK-36459
OBJECT_ID      = 2026-005Z
CENTER_NAME    = EARTH
REF_FRAME      = TEME
TIME_SYSTEM    = UTC
MEAN_ELEMENT_THEORY = SGP/SGP4

EPOCH          = 2026-01-24T04:00:00.999936
MEAN_MOTION    = 15.82685144
ECCENTRICITY   = .0001549
INCLINATION    = 43.0007
RA_OF_ASC_NODE = 135.8606
ARG_OF_PERICENTER = 270.2439
MEAN_ANOMALY   = 80.4987

EPHEMERIS_TYPE = 0
CLASSIFICATION_TYPE = U
NORAD_CAT_ID   = 67427
ELEMENT_SET_NO = 999
REV_AT_EPOCH   = 294
BSTAR          = -.82757E-2
MEAN_MOTION_DOT = -.1576507E-1
MEAN_MOTION_DDOT = 0

